start=new Date('2023-03-09T00:00:00.000Z').valueOf();
sats=[{"PERIAPSIS":"546.101","BSTAR":"0.00189480000000","SEMIMAJOR_AXIS":"6925.269","APOAPSIS":"548.167","RA_OF_ASC_NODE":"358.5572","GP_ID":"227720009","CENTER_NAME":"EARTH","TLE_LINE2":"2 48673  53.0569 358.5572 0001492  90.5403 269.5757 15.06425882 98425","SITE":"AFETR","FILE":"3855077","LAUNCH_DATE":"2021-05-26","DECAY_DATE":null,"MEAN_MOTION_DDOT":"0.0000000000000","PERIOD":"95.590","CLASSIFICATION_TYPE":"U","REV_AT_EPOCH":"9842","TLE_LINE1":"1 48673U 21044AM  23067.17368403  .00028074  00000-0  18948-2 0  9992","INCLINATION":"53.0569","ECCENTRICITY":"0.00014920","ARG_OF_PERICENTER":"90.5403","MEAN_ELEMENT_THEORY":"SGP4","NORAD_CAT_ID":"48673","OBJECT_TYPE":"PAYLOAD","EPOCH":"2023-03-08T04:10:06.300192","REF_FRAME":"TEME","EPHEMERIS_TYPE":"0","MEAN_MOTION":"15.06425882","OBJECT_ID":"2021-044AM","COUNTRY_CODE":"US","RCS_SIZE":"LARGE","TIME_SYSTEM":"UTC","ELEMENT_SET_NO":"999","MEAN_ANOMALY":"269.5757","MEAN_MOTION_DOT":"0.00028074","OBJECT_NAME":"STARLINK-2711"},{"SEMIMAJOR_AXIS":"6925.362","PERIAPSIS":"546.473","BSTAR":"0.00128040000000","RA_OF_ASC_NODE":"355.5962","GP_ID":"227720760","APOAPSIS":"547.981","TLE_LINE2":"2 48674  53.0531 355.5962 0001089 111.7659 248.3446 15.06395686 98525","CENTER_NAME":"EARTH","SITE":"AFETR","MEAN_MOTION_DDOT":"0.0000000000000","PERIOD":"95.592","LAUNCH_DATE":"2021-05-26","FILE":"3855077","DECAY_DATE":null,"ARG_OF_PERICENTER":"111.7659","ECCENTRICITY":"0.00010890","REV_AT_EPOCH":"9852","CLASSIFICATION_TYPE":"U","INCLINATION":"53.0531","TLE_LINE1":"1 48674U 21044AN  23067.83252118  .00018839  00000-0  12804-2 0  9994","EPOCH":"2023-03-08T19:58:49.829952","NORAD_CAT_ID":"48674","MEAN_ELEMENT_THEORY":"SGP4","OBJECT_TYPE":"PAYLOAD","OBJECT_ID":"2021-044AN","COUNTRY_CODE":"US","EPHEMERIS_TYPE":"0","REF_FRAME":"TEME","MEAN_MOTION":"15.06395686","MEAN_ANOMALY":"248.3446","OBJECT_NAME":"STARLINK-2712","MEAN_MOTION_DOT":"0.00018839","TIME_SYSTEM":"UTC","RCS_SIZE":"LARGE","ELEMENT_SET_NO":"999"},{"PERIAPSIS":"546.600","BSTAR":"-0.00144950000000","SEMIMAJOR_AXIS":"6925.456","APOAPSIS":"548.041","GP_ID":"227721510","RA_OF_ASC_NODE":"358.8899","CENTER_NAME":"EARTH","TLE_LINE2":"2 48675  53.0547 358.8899 0001040 103.4329 256.6776 15.06365028 98410","SITE":"AFETR","FILE":"3855077","LAUNCH_DATE":"2021-05-26","DECAY_DATE":null,"PERIOD":"95.594","MEAN_MOTION_DDOT":"0.0000000000000","REV_AT_EPOCH":"9841","CLASSIFICATION_TYPE":"U","TLE_LINE1":"1 48675U 21044AP  23067.09997466 -.00021785  00000-0 -14495-2 0  9999","INCLINATION":"53.0547","ARG_OF_PERICENTER":"103.4329","ECCENTRICITY":"0.00010400","MEAN_ELEMENT_THEORY":"SGP4","NORAD_CAT_ID":"48675","OBJECT_TYPE":"PAYLOAD","EPOCH":"2023-03-08T02:23:57.810624","REF_FRAME":"TEME","EPHEMERIS_TYPE":"0","MEAN_MOTION":"15.06365028","OBJECT_ID":"2021-044AP","COUNTRY_CODE":"US","RCS_SIZE":"LARGE","TIME_SYSTEM":"UTC","ELEMENT_SET_NO":"999","MEAN_ANOMALY":"256.6776","MEAN_MOTION_DOT":"-0.00021785","OBJECT_NAME":"STARLINK-2737"},{"CENTER_NAME":"EARTH","TLE_LINE2":"2 48676  53.0550 355.6271 0001425 106.1615 253.9531 15.06402698 98525","APOAPSIS":"548.192","GP_ID":"227721757","RA_OF_ASC_NODE":"355.6271","PERIAPSIS":"546.218","BSTAR":"0.00122170000000","SEMIMAJOR_AXIS":"6925.340","DECAY_DATE":null,"FILE":"3855077","LAUNCH_DATE":"2021-05-26","PERIOD":"95.592","MEAN_MOTION_DDOT":"0.0000000000000","SITE":"AFETR","OBJECT_TYPE":"PAYLOAD","MEAN_ELEMENT_THEORY":"SGP4","NORAD_CAT_ID":"48676","EPOCH":"2023-03-08T19:49:34.832640","TLE_LINE1":"1 48676U 21044AQ  23067.82609760  .00017964  00000-0  12217-2 0  9990","INCLINATION":"53.0550","REV_AT_EPOCH":"9852","CLASSIFICATION_TYPE":"U","ARG_OF_PERICENTER":"106.1615","ECCENTRICITY":"0.00014250","ELEMENT_SET_NO":"999","RCS_SIZE":"LARGE","TIME_SYSTEM":"UTC","MEAN_MOTION_DOT":"0.00017964","OBJECT_NAME":"STARLINK-2746","MEAN_ANOMALY":"253.9531","MEAN_MOTION":"15.06402698","REF_FRAME":"TEME","EPHEMERIS_TYPE":"0","COUNTRY_CODE":"US","OBJECT_ID":"2021-044AQ"},{"OBJECT_ID":"2021-044AR","COUNTRY_CODE":"US","EPHEMERIS_TYPE":"0","REF_FRAME":"TEME","MEAN_MOTION":"15.06324893","MEAN_ANOMALY":"277.8382","OBJECT_NAME":"STARLINK-2719","MEAN_MOTION_DOT":"0.00051386","TIME_SYSTEM":"UTC","RCS_SIZE":"LARGE","ELEMENT_SET_NO":"999","ECCENTRICITY":"0.00013880","ARG_OF_PERICENTER":"82.2764","REV_AT_EPOCH":"9842","CLASSIFICATION_TYPE":"U","INCLINATION":"53.0539","TLE_LINE1":"1 48677U 21044AR  23067.15799887  .00051386  00000-0  34506-2 0  9998","EPOCH":"2023-03-08T03:47:31.102368","NORAD_CAT_ID":"48677","MEAN_ELEMENT_THEORY":"SGP4","OBJECT_TYPE":"PAYLOAD","SITE":"AFETR","PERIOD":"95.597","MEAN_MOTION_DDOT":"0.0000000000000","LAUNCH_DATE":"2021-05-26","FILE":"3855077","DECAY_DATE":null,"SEMIMAJOR_AXIS":"6925.579","BSTAR":"0.00345060000000","PERIAPSIS":"546.482","GP_ID":"227720510","RA_OF_ASC_NODE":"358.6263","APOAPSIS":"548.405","TLE_LINE2":"2 48677  53.0539 358.6263 0001388  82.2764 277.8382 15.06324893 98422","CENTER_NAME":"EARTH"},{"CENTER_NAME":"EARTH","TLE_LINE2":"2 48678  53.0547 355.6618 0002256  85.1264 274.9983 15.06412134 98527","RA_OF_ASC_NODE":"355.6618","GP_ID":"227720260","APOAPSIS":"548.739","SEMIMAJOR_AXIS":"6925.311","PERIAPSIS":"545.614","BSTAR":"0.00443320000000","DECAY_DATE":null,"LAUNCH_DATE":"2021-05-26","FILE":"3855077","PERIOD":"95.591","MEAN_MOTION_DDOT":"0.0000000000000","SITE":"AFETR","OBJECT_TYPE":"PAYLOAD","NORAD_CAT_ID":"48678","MEAN_ELEMENT_THEORY":"SGP4","EPOCH":"2023-03-08T19:38:57.902208","INCLINATION":"53.0547","TLE_LINE1":"1 48678U 21044AS  23067.81872572  .00066398  00000-0  44332-2 0  9992","REV_AT_EPOCH":"9852","CLASSIFICATION_TYPE":"U","ARG_OF_PERICENTER":"85.1264","ECCENTRICITY":"0.00022560","ELEMENT_SET_NO":"999","TIME_SYSTEM":"UTC","RCS_SIZE":"LARGE","OBJECT_NAME":"STARLINK-2615","MEAN_MOTION_DOT":"0.00066398","MEAN_ANOMALY":"274.9983","MEAN_MOTION":"15.06412134","EPHEMERIS_TYPE":"0","REF_FRAME":"TEME","COUNTRY_CODE":"US","OBJECT_ID":"2021-044AS"},{"REV_AT_EPOCH":"9852","CLASSIFICATION_TYPE":"U","TLE_LINE1":"1 48679U 21044AT  23067.81503779  .00024205  00000-0  16375-2 0  9990","INCLINATION":"53.0554","ARG_OF_PERICENTER":"74.1338","ECCENTRICITY":"0.00013790","MEAN_ELEMENT_THEORY":"SGP4","NORAD_CAT_ID":"48679","OBJECT_TYPE":"PAYLOAD","EPOCH":"2023-03-08T19:33:39.265056","REF_FRAME":"TEME","EPHEMERIS_TYPE":"0","MEAN_MOTION":"15.06417521","OBJECT_ID":"2021-044AT","COUNTRY_CODE":"US","RCS_SIZE":"LARGE","TIME_SYSTEM":"UTC","ELEMENT_SET_NO":"999","MEAN_ANOMALY":"285.9803","MEAN_MOTION_DOT":"0.00024205","OBJECT_NAME":"STARLINK-2648","PERIAPSIS":"546.205","BSTAR":"0.00163750000000","SEMIMAJOR_AXIS":"6925.295","APOAPSIS":"548.115","GP_ID":"227721010","RA_OF_ASC_NODE":"355.6867","CENTER_NAME":"EARTH","TLE_LINE2":"2 48679  53.0554 355.6867 0001379  74.1338 285.9803 15.06417521 98525","SITE":"AFETR","FILE":"3855077","LAUNCH_DATE":"2021-05-26","DECAY_DATE":null,"MEAN_MOTION_DDOT":"0.0000000000000","PERIOD":"95.591"},{"EPOCH":"2023-03-08T19:28:20.994240","OBJECT_TYPE":"PAYLOAD","NORAD_CAT_ID":"48680","MEAN_ELEMENT_THEORY":"SGP4","ARG_OF_PERICENTER":"74.2934","ECCENTRICITY":"0.00014380","INCLINATION":"53.0552","TLE_LINE1":"1 48680U 21044AU  23067.81135410  .00004809  00000-0  34161-3 0  9997","REV_AT_EPOCH":"9852","CLASSIFICATION_TYPE":"U","OBJECT_NAME":"STARLINK-2649","MEAN_MOTION_DOT":"0.00004809","MEAN_ANOMALY":"285.8214","ELEMENT_SET_NO":"999","TIME_SYSTEM":"UTC","RCS_SIZE":"LARGE","COUNTRY_CODE":"US","OBJECT_ID":"2021-044AU","MEAN_MOTION":"15.06392193","EPHEMERIS_TYPE":"0","REF_FRAME":"TEME","TLE_LINE2":"2 48680  53.0552 355.6965 0001438  74.2934 285.8214 15.06392193 98525","CENTER_NAME":"EARTH","GP_ID":"227721257","RA_OF_ASC_NODE":"355.6965","APOAPSIS":"548.233","SEMIMAJOR_AXIS":"6925.372","PERIAPSIS":"546.242","BSTAR":"0.00034161000000","PERIOD":"95.593","MEAN_MOTION_DDOT":"0.0000000000000","DECAY_DATE":null,"LAUNCH_DATE":"2021-05-26","FILE":"3855077","SITE":"AFETR"},{"SEMIMAJOR_AXIS":"6925.338","BSTAR":"0.00149410000000","PERIAPSIS":"546.198","GP_ID":"227720010","RA_OF_ASC_NODE":"326.2382","APOAPSIS":"548.208","TLE_LINE2":"2 48681  53.0534 326.2382 0001451  80.7658 279.3495 15.06403507 98928","CENTER_NAME":"EARTH","SITE":"AFETR","MEAN_MOTION_DDOT":"0.0000000000000","PERIOD":"95.592","LAUNCH_DATE":"2021-05-26","FILE":"3855077","DECAY_DATE":null,"ECCENTRICITY":"0.00014510","ARG_OF_PERICENTER":"80.7658","CLASSIFICATION_TYPE":"U","REV_AT_EPOCH":"9892","INCLINATION":"53.0534","TLE_LINE1":"1 48681U 21044AV  23067.74411815  .00022045  00000-0  14941-2 0  9991","EPOCH":"2023-03-08T17:51:31.808160","NORAD_CAT_ID":"48681","MEAN_ELEMENT_THEORY":"SGP4","OBJECT_TYPE":"PAYLOAD","OBJECT_ID":"2021-044AV","COUNTRY_CODE":"US","EPHEMERIS_TYPE":"0","REF_FRAME":"TEME","MEAN_MOTION":"15.06403507","MEAN_ANOMALY":"279.3495","MEAN_MOTION_DOT":"0.00022045","OBJECT_NAME":"STARLINK-2725","TIME_SYSTEM":"UTC","RCS_SIZE":"LARGE","ELEMENT_SET_NO":"999"},{"SEMIMAJOR_AXIS":"6925.306","PERIAPSIS":"546.495","BSTAR":"0.00265500000000","RA_OF_ASC_NODE":"315.2899","GP_ID":"227720761","APOAPSIS":"547.847","TLE_LINE2":"2 48682  53.0520 315.2899 0000976  87.5984 272.5116 15.06413765 99094","CENTER_NAME":"EARTH","SITE":"AFETR","PERIOD":"95.591","MEAN_MOTION_DDOT":"0.0000000000000","LAUNCH_DATE":"2021-05-26","FILE":"3855077","DECAY_DATE":null,"ARG_OF_PERICENTER":"87.5984","ECCENTRICITY":"0.00009760","CLASSIFICATION_TYPE":"U","REV_AT_EPOCH":"9909","INCLINATION":"53.0520","TLE_LINE1":"1 48682U 21044AW  23067.94038341  .00039502  00000-0  26550-2 0  9998","EPOCH":"2023-03-08T22:34:09.126624","NORAD_CAT_ID":"48682","MEAN_ELEMENT_THEORY":"SGP4","OBJECT_TYPE":"PAYLOAD","OBJECT_ID":"2021-044AW","COUNTRY_CODE":"US","EPHEMERIS_TYPE":"0","REF_FRAME":"TEME","MEAN_MOTION":"15.06413765","MEAN_ANOMALY":"272.5116","MEAN_MOTION_DOT":"0.00039502","OBJECT_NAME":"STARLINK-2743","TIME_SYSTEM":"UTC","RCS_SIZE":"LARGE","ELEMENT_SET_NO":"999"}];
